ASTROCAST-0403          
1 55111U 23001DG  26068.82333059  .00013959  00000+0  51317-3 0  9990
2 55111  97.5604 161.3228 0004771 338.0704  22.0330 15.28004949129377
STARLINK-32916          
1 62922U 25027R   26068.16913736  .00031451  00000+0  11480-2 0  9994
2 62922  43.0001 131.7237 0000766 232.1652 127.9130 15.27567346 61461
